[{"OBJECT_NAME":"STARLINK-2493","OBJECT_ID":"2021-027BL","EPOCH":"2026-03-10T00:00:02.999808","MEAN_MOTION":15.12929872,"ECCENTRICITY":0.00012937,"INCLINATION":53.0812,"RA_OF_ASC_NODE":150.1407,"ARG_OF_PERICENTER":86.7276,"MEAN_ANOMALY":174.3969,"EPHEMERIS_TYPE":0,"CLASSIFICATION_TYPE":"U","NORAD_CAT_ID":48150,"ELEMENT_SET_NO":999,"REV_AT_EPOCH":559,"BSTAR":0.045406962,"MEAN_MOTION_DOT":0.00872289,"MEAN_MOTION_DDOT":0},{"OBJECT_NAME":"CZ-4C DEB","OBJECT_ID":"2018-031H","EPOCH":"2026-03-09T10:10:58.582560","MEAN_MOTION":15.14033759,"ECCENTRICITY":0.00199639,"INCLINATION":98.1663,"RA_OF_ASC_NODE":242.9335,"ARG_OF_PERICENTER":272.748,"MEAN_ANOMALY":87.1465,"EPHEMERIS_TYPE":0,"CLASSIFICATION_TYPE":"U","NORAD_CAT_ID":43266,"ELEMENT_SET_NO":999,"REV_AT_EPOCH":43166,"BSTAR":0.00079064643,"MEAN_MOTION_DOT":0.00014379,"MEAN_MOTION_DDOT":0}]
